{"fetched_at":"2026-03-30T06:02:59Z","count":15439,"tles":[{"name":"STARLINK-33622","line1":"1 63066U 25035Q   26087.85329402  .00028861  00000+0  10534-2 0  9991","line2":"2 63066  43.0041  38.5805 0002002 251.0551 109.0084 15.27603157 62666","category":"Starlink"}]}